[
    {
        "Altitude(m)": 607886.7340597087,
        "Argument of Periapsis(deg)": 0.0,
        "Eccentricity": 0.0,
        "Inclination(deg)": 60.0,
        "Latitude(deg)": 40.998559072635075,
        "Longitude(deg)": 134.97300286878175,
        "Mean Anomaly(deg)": 49.09090000000002,
        "RAAN(deg)": 205.0,
        "Satellite Name": "Test1 905",
        "Satellite Number": 905,
        "Semi-Major Axis(m)": 6980739.136638005,
        "Time(s)": 0
    },
    {
        "Altitude(m)": 607987.6481046238,
        "Argument of Periapsis(deg)": 0.00010418945913296404,
        "Eccentricity": 0.0,
        "Inclination(deg)": 60.0,
        "Latitude(deg)": 41.463648895201175,
        "Longitude(deg)": 135.47723201584117,
        "Mean Anomaly(deg)": 49.71100614546182,
        "RAAN(deg)": 204.99957995086024,
        "Satellite Name": "Test1 905",
        "Satellite Number": 905,
        "Semi-Major Axis(m)": 6980739.136638005,
        "Time(s)": 10
    }
]